start=new Date('2021-10-12T00:00:00.000Z').valueOf();
sats=[{"MEAN_MOTION_DOT":"0.00000070","TLE_LINE1":"1 48131U 21027AR  21284.90183054  .00000070  00000-0  23633-4 0  9994","GP_ID":"186929886","DECAY_DATE":null,"PERIAPSIS":"546.078","COUNTRY_CODE":"US","NORAD_CAT_ID":"48131","CENTER_NAME":"EARTH","INCLINATION":"53.0548","ARG_OF_PERICENTER":"71.2220","MEAN_ELEMENT_THEORY":"SGP4","RCS_SIZE":"LARGE","MEAN_ANOMALY":"288.8950","SEMIMAJOR_AXIS":"6925.365","REV_AT_EPOCH":"3006","OBJECT_NAME":"STARLINK-2473","REF_FRAME":"TEME","OBJECT_TYPE":"PAYLOAD","TIME_SYSTEM":"UTC","APOAPSIS":"548.383","MEAN_MOTION_DDOT":"0.0000000000000","FILE":"3157563","TLE_LINE2":"2 48131  53.0548 178.2474 0001664  71.2220 288.8950 15.06394557 30062","PERIOD":"95.592","ELEMENT_SET_NO":"999","ECCENTRICITY":"0.00016640","EPOCH":"2021-10-11T21:38:38.158656","RA_OF_ASC_NODE":"178.2474","SITE":"AFETR","MEAN_MOTION":"15.06394557","LAUNCH_DATE":"2021-04-07","EPHEMERIS_TYPE":"0","BSTAR":"0.00002363300000","OBJECT_ID":"2021-027AR","CLASSIFICATION_TYPE":"U"},{"MEAN_ANOMALY":"290.2647","RCS_SIZE":"LARGE","ARG_OF_PERICENTER":"69.8513","CENTER_NAME":"EARTH","INCLINATION":"53.0556","MEAN_ELEMENT_THEORY":"SGP4","GP_ID":"186902108","MEAN_MOTION_DOT":"-0.00000166","TLE_LINE1":"1 48132U 21027AS  21284.48347286 -.00000166  00000-0  77820-5 0  9992","COUNTRY_CODE":"US","NORAD_CAT_ID":"48132","DECAY_DATE":null,"PERIAPSIS":"546.123","MEAN_MOTION":"15.06396075","SITE":"AFETR","LAUNCH_DATE":"2021-04-07","ECCENTRICITY":"0.00015920","EPOCH":"2021-10-11T11:36:12.055104","RA_OF_ASC_NODE":"200.1101","OBJECT_ID":"2021-027AS","CLASSIFICATION_TYPE":"U","EPHEMERIS_TYPE":"0","BSTAR":"0.00000778200000","APOAPSIS":"548.328","TIME_SYSTEM":"UTC","TLE_LINE2":"2 48132  53.0556 200.1101 0001592  69.8513 290.2647 15.06396075 29326","PERIOD":"95.592","ELEMENT_SET_NO":"999","MEAN_MOTION_DDOT":"0.0000000000000","FILE":"3157287","OBJECT_TYPE":"PAYLOAD","REF_FRAME":"TEME","REV_AT_EPOCH":"2932","SEMIMAJOR_AXIS":"6925.361","OBJECT_NAME":"STARLINK-2474"},{"RCS_SIZE":"LARGE","MEAN_ANOMALY":"287.5781","COUNTRY_CODE":"US","NORAD_CAT_ID":"48133","DECAY_DATE":null,"PERIAPSIS":"546.085","GP_ID":"186896672","MEAN_MOTION_DOT":"0.00000459","TLE_LINE1":"1 48133U 21027AT  21284.47979430  .00000459  00000-0  49715-4 0  9999","MEAN_ELEMENT_THEORY":"SGP4","ARG_OF_PERICENTER":"72.5389","CENTER_NAME":"EARTH","INCLINATION":"53.0562","TLE_LINE2":"2 48133  53.0562 200.1265 0001652  72.5389 287.5781 15.06395049 29726","ELEMENT_SET_NO":"999","PERIOD":"95.592","FILE":"3157068","MEAN_MOTION_DDOT":"0.0000000000000","APOAPSIS":"548.373","TIME_SYSTEM":"UTC","OBJECT_ID":"2021-027AT","CLASSIFICATION_TYPE":"U","EPHEMERIS_TYPE":"0","BSTAR":"0.00004971500000","MEAN_MOTION":"15.06395049","SITE":"AFETR","LAUNCH_DATE":"2021-04-07","EPOCH":"2021-10-11T11:30:54.227520","ECCENTRICITY":"0.00016520","RA_OF_ASC_NODE":"200.1265","OBJECT_NAME":"STARLINK-2475","SEMIMAJOR_AXIS":"6925.364","REV_AT_EPOCH":"2972","OBJECT_TYPE":"PAYLOAD","REF_FRAME":"TEME"},{"TLE_LINE1":"1 48134U 21027AU  21284.92946933 -.00000065  00000-0  14513-4 0  9994","MEAN_MOTION_DOT":"-0.00000065","GP_ID":"186929135","PERIAPSIS":"546.041","DECAY_DATE":null,"NORAD_CAT_ID":"48134","COUNTRY_CODE":"US","CENTER_NAME":"EARTH","INCLINATION":"53.0559","ARG_OF_PERICENTER":"68.2351","MEAN_ELEMENT_THEORY":"SGP4","RCS_SIZE":"LARGE","MEAN_ANOMALY":"291.8818","SEMIMAJOR_AXIS":"6925.349","REV_AT_EPOCH":"2978","OBJECT_NAME":"STARLINK-2476","REF_FRAME":"TEME","OBJECT_TYPE":"PAYLOAD","TIME_SYSTEM":"UTC","APOAPSIS":"548.386","FILE":"3157563","MEAN_MOTION_DDOT":"0.0000000000000","PERIOD":"95.592","ELEMENT_SET_NO":"999","TLE_LINE2":"2 48134  53.0559 198.1057 0001693  68.2351 291.8818 15.06399947 29780","RA_OF_ASC_NODE":"198.1057","ECCENTRICITY":"0.00016930","EPOCH":"2021-10-11T22:18:26.150112","LAUNCH_DATE":"2021-04-07","SITE":"AFETR","MEAN_MOTION":"15.06399947","BSTAR":"0.00001451300000","EPHEMERIS_TYPE":"0","CLASSIFICATION_TYPE":"U","OBJECT_ID":"2021-027AU"},{"MEAN_ANOMALY":"294.0886","RCS_SIZE":"LARGE","MEAN_ELEMENT_THEORY":"SGP4","INCLINATION":"53.0560","CENTER_NAME":"EARTH","ARG_OF_PERICENTER":"66.0287","PERIAPSIS":"546.005","DECAY_DATE":null,"NORAD_CAT_ID":"48135","COUNTRY_CODE":"US","TLE_LINE1":"1 48135U 21027AV  21284.91516916  .00000411  00000-0  46517-4 0  9991","MEAN_MOTION_DOT":"0.00000411","GP_ID":"186930386","BSTAR":"0.00004651700000","EPHEMERIS_TYPE":"0","CLASSIFICATION_TYPE":"U","OBJECT_ID":"2021-027AV","RA_OF_ASC_NODE":"203.1726","EPOCH":"2021-10-11T21:57:50.615424","ECCENTRICITY":"0.00017640","LAUNCH_DATE":"2021-04-07","SITE":"AFETR","MEAN_MOTION":"15.06395819","FILE":"3157563","MEAN_MOTION_DDOT":"0.0000000000000","PERIOD":"95.592","ELEMENT_SET_NO":"999","TLE_LINE2":"2 48135  53.0560 203.1726 0001764  66.0287 294.0886 15.06395819 29713","TIME_SYSTEM":"UTC","APOAPSIS":"548.448","REF_FRAME":"TEME","OBJECT_TYPE":"PAYLOAD","OBJECT_NAME":"STARLINK-2478","SEMIMAJOR_AXIS":"6925.361","REV_AT_EPOCH":"2971"},{"MEAN_ANOMALY":"284.3737","RCS_SIZE":"LARGE","MEAN_ELEMENT_THEORY":"SGP4","ARG_OF_PERICENTER":"75.7449","CENTER_NAME":"EARTH","INCLINATION":"53.0552","NORAD_CAT_ID":"48136","COUNTRY_CODE":"US","PERIAPSIS":"546.005","DECAY_DATE":null,"GP_ID":"186895916","TLE_LINE1":"1 48136U 21027AW  21284.49085024  .00000128  00000-0  27535-4 0  9990","MEAN_MOTION_DOT":"0.00000128","CLASSIFICATION_TYPE":"U","OBJECT_ID":"2021-027AW","BSTAR":"0.00002753500000","EPHEMERIS_TYPE":"0","LAUNCH_DATE":"2021-04-07","MEAN_MOTION":"15.06394718","SITE":"AFETR","RA_OF_ASC_NODE":"200.0686","ECCENTRICITY":"0.00017690","EPOCH":"2021-10-11T11:46:49.460736","ELEMENT_SET_NO":"999","PERIOD":"95.592","TLE_LINE2":"2 48136  53.0552 200.0686 0001769  75.7449 284.3737 15.06394718 29723","MEAN_MOTION_DDOT":"0.0000000000000","FILE":"3157068","APOAPSIS":"548.455","TIME_SYSTEM":"UTC","OBJECT_TYPE":"PAYLOAD","REF_FRAME":"TEME","OBJECT_NAME":"STARLINK-2479","REV_AT_EPOCH":"2972","SEMIMAJOR_AXIS":"6925.365"},{"ARG_OF_PERICENTER":"63.9226","CENTER_NAME":"EARTH","INCLINATION":"53.0485","MEAN_ELEMENT_THEORY":"SGP4","GP_ID":"186928885","MEAN_MOTION_DOT":"-0.00001220","TLE_LINE1":"1 48137U 21027AX  21284.91562906 -.00001220  00000-0 -63021-4 0  9993","COUNTRY_CODE":"US","NORAD_CAT_ID":"48137","DECAY_DATE":null,"PERIAPSIS":"545.950","MEAN_ANOMALY":"296.1952","RCS_SIZE":"LARGE","OBJECT_TYPE":"PAYLOAD","REF_FRAME":"TEME","REV_AT_EPOCH":"3006","SEMIMAJOR_AXIS":"6925.359","OBJECT_NAME":"STARLINK-2480","SITE":"AFETR","MEAN_MOTION":"15.06396515","LAUNCH_DATE":"2021-04-07","ECCENTRICITY":"0.00018400","EPOCH":"2021-10-11T21:58:30.350784","RA_OF_ASC_NODE":"178.1934","OBJECT_ID":"2021-027AX","CLASSIFICATION_TYPE":"U","EPHEMERIS_TYPE":"0","BSTAR":"-0.00006302100000","APOAPSIS":"548.499","TIME_SYSTEM":"UTC","TLE_LINE2":"2 48137  53.0485 178.1934 0001840  63.9226 296.1952 15.06396515 30068","ELEMENT_SET_NO":"999","PERIOD":"95.592","FILE":"3157563","MEAN_MOTION_DDOT":"0.0000000000000"},{"PERIAPSIS":"546.068","DECAY_DATE":null,"NORAD_CAT_ID":"48138","COUNTRY_CODE":"US","TLE_LINE1":"1 48138U 21027AY  21284.47610103  .00002118  00000-0  16107-3 0  9995","MEAN_MOTION_DOT":"0.00002118","GP_ID":"186902274","MEAN_ELEMENT_THEORY":"SGP4","INCLINATION":"53.0563","CENTER_NAME":"EARTH","ARG_OF_PERICENTER":"67.0959","RCS_SIZE":"LARGE","MEAN_ANOMALY":"293.0205","OBJECT_NAME":"STARLINK-2481","SEMIMAJOR_AXIS":"6925.352","REV_AT_EPOCH":"2931","REF_FRAME":"TEME","OBJECT_TYPE":"PAYLOAD","FILE":"3157302","MEAN_MOTION_DDOT":"0.0000000000000","ELEMENT_SET_NO":"999","PERIOD":"95.592","TLE_LINE2":"2 48138  53.0563 200.1446 0001659  67.0959 293.0205 15.06398883 29319","TIME_SYSTEM":"UTC","APOAPSIS":"548.366","BSTAR":"0.00016107000000","EPHEMERIS_TYPE":"0","CLASSIFICATION_TYPE":"U","OBJECT_ID":"2021-027AY","RA_OF_ASC_NODE":"200.1446","EPOCH":"2021-10-11T11:25:35.128992","ECCENTRICITY":"0.00016590","LAUNCH_DATE":"2021-04-07","MEAN_MOTION":"15.06398883","SITE":"AFETR"},{"MEAN_ANOMALY":"292.4368","RCS_SIZE":"LARGE","MEAN_ELEMENT_THEORY":"SGP4","ARG_OF_PERICENTER":"67.6826","CENTER_NAME":"EARTH","INCLINATION":"53.0549","COUNTRY_CODE":"US","NORAD_CAT_ID":"48139","DECAY_DATE":null,"PERIAPSIS":"545.863","GP_ID":"186929887","MEAN_MOTION_DOT":"0.00000190","TLE_LINE1":"1 48139U 21027AZ  21284.93130752  .00000190  00000-0  31693-4 0  9990","OBJECT_ID":"2021-027AZ","CLASSIFICATION_TYPE":"U","EPHEMERIS_TYPE":"0","BSTAR":"0.00003169300000","SITE":"AFETR","MEAN_MOTION":"15.06403169","LAUNCH_DATE":"2021-04-07","ECCENTRICITY":"0.00019360","EPOCH":"2021-10-11T22:21:04.969728","RA_OF_ASC_NODE":"178.0936","TLE_LINE2":"2 48139  53.0549 178.0936 0001936  67.6826 292.4368 15.06403169 30070","ELEMENT_SET_NO":"999","PERIOD":"95.592","FILE":"3157563","MEAN_MOTION_DDOT":"0.0000000000000","APOAPSIS":"548.545","TIME_SYSTEM":"UTC","OBJECT_TYPE":"PAYLOAD","REF_FRAME":"TEME","OBJECT_NAME":"STARLINK-2482","SEMIMAJOR_AXIS":"6925.339","REV_AT_EPOCH":"3007"},{"RCS_SIZE":"LARGE","MEAN_ANOMALY":"290.6219","TLE_LINE1":"1 48140U 21027BA  21284.50096070  .00002071  00000-0  15792-3 0  9990","MEAN_MOTION_DOT":"0.00002071","GP_ID":"186896416","PERIAPSIS":"546.041","DECAY_DATE":null,"NORAD_CAT_ID":"48140","COUNTRY_CODE":"US","CENTER_NAME":"EARTH","INCLINATION":"53.0555","ARG_OF_PERICENTER":"69.4953","MEAN_ELEMENT_THEORY":"SGP4","TIME_SYSTEM":"UTC","APOAPSIS":"548.394","MEAN_MOTION_DDOT":"0.0000000000000","FILE":"3157068","ELEMENT_SET_NO":"999","PERIOD":"95.592","TLE_LINE2":"2 48140  53.0555 200.0253 0001699  69.4953 290.6219 15.06398632 29727","RA_OF_ASC_NODE":"200.0253","EPOCH":"2021-10-11T12:01:23.004480","ECCENTRICITY":"0.00016990","LAUNCH_DATE":"2021-04-07","MEAN_MOTION":"15.06398632","SITE":"AFETR","BSTAR":"0.00015792000000","EPHEMERIS_TYPE":"0","CLASSIFICATION_TYPE":"U","OBJECT_ID":"2021-027BA","REV_AT_EPOCH":"2972","SEMIMAJOR_AXIS":"6925.353","OBJECT_NAME":"STARLINK-2483","REF_FRAME":"TEME","OBJECT_TYPE":"PAYLOAD"}];
